start=new Date('2022-04-01T00:00:00.000Z').valueOf();
sats=[{"REV_AT_EPOCH":"6359","RCS_SIZE":"LARGE","EPOCH":"2022-03-31T11:56:00.433536","MEAN_MOTION_DDOT":"0.0000000000000","SITE":"AFETR","MEAN_ANOMALY":"303.5516","RA_OF_ASC_NODE":"22.4104","FILE":"3381849","ELEMENT_SET_NO":"999","OBJECT_ID":"2021-009BB","NORAD_CAT_ID":"47597","ARG_OF_PERICENTER":"56.5628","INCLINATION":"53.0560","SEMIMAJOR_AXIS":"6925.345","COUNTRY_CODE":"US","BSTAR":"0.00014854000000","PERIAPSIS":"546.084","EPHEMERIS_TYPE":"0","ECCENTRICITY":"0.00016260","TLE_LINE1":"1 47597U 21009BB  22090.49722724  .00001932  00000-0  14854-3 0  9994","DECAY_DATE":null,"LAUNCH_DATE":"2021-02-04","MEAN_ELEMENT_THEORY":"SGP4","PERIOD":"95.592","CENTER_NAME":"EARTH","CLASSIFICATION_TYPE":"U","OBJECT_TYPE":"PAYLOAD","APOAPSIS":"548.336","GP_ID":"200146140","OBJECT_NAME":"STARLINK-2002","MEAN_MOTION_DOT":"0.00001932","TIME_SYSTEM":"UTC","REF_FRAME":"TEME","TLE_LINE2":"2 47597  53.0560  22.4104 0001626  56.5628 303.5516 15.06401261 63595","MEAN_MOTION":"15.06401261"},{"REV_AT_EPOCH":"6401","RCS_SIZE":"LARGE","MEAN_MOTION_DDOT":"0.0000000000000","EPOCH":"2022-03-31T10:35:04.175520","SITE":"AFETR","MEAN_ANOMALY":"301.8945","ELEMENT_SET_NO":"999","OBJECT_ID":"2021-009BC","FILE":"3381849","RA_OF_ASC_NODE":"352.6681","ARG_OF_PERICENTER":"58.2183","NORAD_CAT_ID":"47598","INCLINATION":"53.0552","COUNTRY_CODE":"US","SEMIMAJOR_AXIS":"6925.331","ECCENTRICITY":"0.00014360","BSTAR":"0.00017185000000","EPHEMERIS_TYPE":"0","PERIAPSIS":"546.201","DECAY_DATE":null,"TLE_LINE1":"1 47598U 21009BC  22090.44102055  .00002280  00000-0  17185-3 0  9996","PERIOD":"95.592","LAUNCH_DATE":"2021-02-04","MEAN_ELEMENT_THEORY":"SGP4","CENTER_NAME":"EARTH","APOAPSIS":"548.190","CLASSIFICATION_TYPE":"U","OBJECT_TYPE":"PAYLOAD","OBJECT_NAME":"STARLINK-2003","GP_ID":"200146376","MEAN_MOTION_DOT":"0.00002280","TIME_SYSTEM":"UTC","REF_FRAME":"TEME","TLE_LINE2":"2 47598  53.0552 352.6681 0001436  58.2183 301.8945 15.06405881 64016","MEAN_MOTION":"15.06405881"},{"MEAN_MOTION_DDOT":"0.0000000000000","RCS_SIZE":"LARGE","EPOCH":"2022-03-31T10:20:28.444128","REV_AT_EPOCH":"6414","MEAN_ANOMALY":"299.3713","SITE":"AFETR","NORAD_CAT_ID":"47599","ARG_OF_PERICENTER":"60.7428","FILE":"3381849","RA_OF_ASC_NODE":"342.7086","OBJECT_ID":"2021-009BD","ELEMENT_SET_NO":"999","EPHEMERIS_TYPE":"0","PERIAPSIS":"546.126","BSTAR":"0.00054063000000","ECCENTRICITY":"0.00015290","COUNTRY_CODE":"US","SEMIMAJOR_AXIS":"6925.320","INCLINATION":"53.0554","TLE_LINE1":"1 47599U 21009BD  22090.43088477  .00007782  00000-0  54063-3 0  9995","DECAY_DATE":null,"CENTER_NAME":"EARTH","MEAN_ELEMENT_THEORY":"SGP4","LAUNCH_DATE":"2021-02-04","PERIOD":"95.592","GP_ID":"200145632","OBJECT_NAME":"STARLINK-2004","OBJECT_TYPE":"PAYLOAD","CLASSIFICATION_TYPE":"U","APOAPSIS":"548.244","MEAN_MOTION":"15.06409327","TLE_LINE2":"2 47599  53.0554 342.7086 0001529  60.7428 299.3713 15.06409327 64148","TIME_SYSTEM":"UTC","MEAN_MOTION_DOT":"0.00007782","REF_FRAME":"TEME"},{"PERIOD":"95.592","MEAN_ELEMENT_THEORY":"SGP4","LAUNCH_DATE":"2021-02-04","CENTER_NAME":"EARTH","DECAY_DATE":null,"TLE_LINE1":"1 47600U 21009BE  22090.85750080  .00006840  00000-0  47760-3 0  9990","TLE_LINE2":"2 47600  53.0540 340.7999 0001412  81.1378 278.9771 15.06403580 64826","REF_FRAME":"TEME","MEAN_MOTION_DOT":"0.00006840","TIME_SYSTEM":"UTC","MEAN_MOTION":"15.06403580","APOAPSIS":"548.180","OBJECT_TYPE":"PAYLOAD","CLASSIFICATION_TYPE":"U","OBJECT_NAME":"STARLINK-2005","GP_ID":"200156071","MEAN_ANOMALY":"278.9771","SITE":"AFETR","REV_AT_EPOCH":"6482","RCS_SIZE":"LARGE","MEAN_MOTION_DDOT":"0.0000000000000","EPOCH":"2022-03-31T20:34:48.069120","COUNTRY_CODE":"US","SEMIMAJOR_AXIS":"6925.338","INCLINATION":"53.0540","ECCENTRICITY":"0.00014120","PERIAPSIS":"546.225","EPHEMERIS_TYPE":"0","BSTAR":"0.00047760000000","OBJECT_ID":"2021-009BE","ELEMENT_SET_NO":"999","FILE":"3382140","RA_OF_ASC_NODE":"340.7999","ARG_OF_PERICENTER":"81.1378","NORAD_CAT_ID":"47600"},{"CENTER_NAME":"EARTH","PERIOD":"95.592","MEAN_ELEMENT_THEORY":"SGP4","LAUNCH_DATE":"2021-02-04","DECAY_DATE":null,"TLE_LINE1":"1 47601U 21009BF  22090.10283778  .00001872  00000-0  14452-3 0  9996","MEAN_MOTION":"15.06396879","TLE_LINE2":"2 47601  53.0553 344.1891 0001581  64.7447 295.3706 15.06396879 64093","TIME_SYSTEM":"UTC","MEAN_MOTION_DOT":"0.00001872","REF_FRAME":"TEME","OBJECT_NAME":"STARLINK-2006","GP_ID":"200146634","APOAPSIS":"548.318","OBJECT_TYPE":"PAYLOAD","CLASSIFICATION_TYPE":"U","MEAN_ANOMALY":"295.3706","SITE":"AFETR","RCS_SIZE":"LARGE","MEAN_MOTION_DDOT":"0.0000000000000","EPOCH":"2022-03-31T02:28:05.184192","REV_AT_EPOCH":"6409","ECCENTRICITY":"0.00015810","PERIAPSIS":"546.128","EPHEMERIS_TYPE":"0","BSTAR":"0.00014452000000","SEMIMAJOR_AXIS":"6925.358","COUNTRY_CODE":"US","INCLINATION":"53.0553","ARG_OF_PERICENTER":"64.7447","NORAD_CAT_ID":"47601","OBJECT_ID":"2021-009BF","ELEMENT_SET_NO":"999","FILE":"3381849","RA_OF_ASC_NODE":"344.1891"},{"PERIOD":"95.591","LAUNCH_DATE":"2021-02-04","MEAN_ELEMENT_THEORY":"SGP4","CENTER_NAME":"EARTH","DECAY_DATE":null,"TLE_LINE1":"1 47602U 21009BG  22090.45576339  .00007814  00000-0  54272-3 0  9999","MEAN_MOTION_DOT":"0.00007814","TIME_SYSTEM":"UTC","REF_FRAME":"TEME","TLE_LINE2":"2 47602  53.0570 352.5916 0001514  53.2334 306.8794 15.06411524 64009","MEAN_MOTION":"15.06411524","APOAPSIS":"548.227","CLASSIFICATION_TYPE":"U","OBJECT_TYPE":"PAYLOAD","OBJECT_NAME":"STARLINK-2007","GP_ID":"200146870","SITE":"AFETR","MEAN_ANOMALY":"306.8794","REV_AT_EPOCH":"6400","MEAN_MOTION_DDOT":"0.0000000000000","RCS_SIZE":"LARGE","EPOCH":"2022-03-31T10:56:17.956896","INCLINATION":"53.0570","SEMIMAJOR_AXIS":"6925.313","COUNTRY_CODE":"US","ECCENTRICITY":"0.00015140","BSTAR":"0.00054272000000","PERIAPSIS":"546.130","EPHEMERIS_TYPE":"0","ELEMENT_SET_NO":"999","OBJECT_ID":"2021-009BG","RA_OF_ASC_NODE":"352.5916","FILE":"3381849","ARG_OF_PERICENTER":"53.2334","NORAD_CAT_ID":"47602"},{"RA_OF_ASC_NODE":"22.2349","FILE":"3381849","ELEMENT_SET_NO":"999","OBJECT_ID":"2021-009BH","NORAD_CAT_ID":"47603","ARG_OF_PERICENTER":"46.1697","INCLINATION":"53.0572","COUNTRY_CODE":"US","SEMIMAJOR_AXIS":"6925.356","BSTAR":"0.00006693000000","PERIAPSIS":"545.936","EPHEMERIS_TYPE":"0","ECCENTRICITY":"0.00018550","REV_AT_EPOCH":"6359","MEAN_MOTION_DDOT":"0.0000000000000","RCS_SIZE":"LARGE","EPOCH":"2022-03-31T12:49:05.433888","SITE":"AFETR","MEAN_ANOMALY":"313.9445","CLASSIFICATION_TYPE":"U","OBJECT_TYPE":"PAYLOAD","APOAPSIS":"548.506","GP_ID":"200145139","OBJECT_NAME":"STARLINK-2008","MEAN_MOTION_DOT":"0.00000715","REF_FRAME":"TEME","TIME_SYSTEM":"UTC","TLE_LINE2":"2 47603  53.0572  22.2349 0001855  46.1697 313.9445 15.06397564 63596","MEAN_MOTION":"15.06397564","TLE_LINE1":"1 47603U 21009BH  22090.53409067  .00000715  00000-0  66930-4 0  9990","DECAY_DATE":null,"LAUNCH_DATE":"2021-02-04","MEAN_ELEMENT_THEORY":"SGP4","PERIOD":"95.592","CENTER_NAME":"EARTH"},{"PERIOD":"95.592","LAUNCH_DATE":"2021-02-04","MEAN_ELEMENT_THEORY":"SGP4","CENTER_NAME":"EARTH","DECAY_DATE":null,"TLE_LINE1":"1 47604U 21009BJ  22090.46313578  .00005597  00000-0  39423-3 0  9993","TIME_SYSTEM":"UTC","MEAN_MOTION_DOT":"0.00005597","REF_FRAME":"TEME","TLE_LINE2":"2 47604  53.0558 352.5549 0001707  58.7003 301.4153 15.06408694 64011","MEAN_MOTION":"15.06408694","APOAPSIS":"548.369","CLASSIFICATION_TYPE":"U","OBJECT_TYPE":"PAYLOAD","OBJECT_NAME":"STARLINK-2021","GP_ID":"200145883","SITE":"AFETR","MEAN_ANOMALY":"301.4153","REV_AT_EPOCH":"6401","EPOCH":"2022-03-31T11:06:54.931392","RCS_SIZE":"LARGE","MEAN_MOTION_DDOT":"0.0000000000000","INCLINATION":"53.0558","SEMIMAJOR_AXIS":"6925.322","COUNTRY_CODE":"US","ECCENTRICITY":"0.00017070","BSTAR":"0.00039423000000","EPHEMERIS_TYPE":"0","PERIAPSIS":"546.005","ELEMENT_SET_NO":"999","OBJECT_ID":"2021-009BJ","RA_OF_ASC_NODE":"352.5549","FILE":"3381849","ARG_OF_PERICENTER":"58.7003","NORAD_CAT_ID":"47604"},{"CENTER_NAME":"EARTH","PERIOD":"91.626","MEAN_ELEMENT_THEORY":"SGP4","LAUNCH_DATE":"2021-02-04","DECAY_DATE":null,"TLE_LINE1":"1 47605U 21009BK  22090.83968851  .00120755  00000-0  91189-3 0  9996","MEAN_MOTION":"15.71607208","TLE_LINE2":"2 47605  53.0515 305.1281 0001120 145.7202 214.3887 15.71607208 65302","MEAN_MOTION_DOT":"0.00120755","TIME_SYSTEM":"UTC","REF_FRAME":"TEME","OBJECT_NAME":"STARLINK-2023","GP_ID":"200156088","APOAPSIS":"355.059","OBJECT_TYPE":"PAYLOAD","CLASSIFICATION_TYPE":"U","MEAN_ANOMALY":"214.3887","SITE":"AFETR","RCS_SIZE":"LARGE","EPOCH":"2022-03-31T20:09:09.087264","MEAN_MOTION_DDOT":"0.0000000000000","REV_AT_EPOCH":"6530","ECCENTRICITY":"0.00011200","EPHEMERIS_TYPE":"0","PERIAPSIS":"353.551","BSTAR":"0.00091189000000","SEMIMAJOR_AXIS":"6732.440","COUNTRY_CODE":"US","INCLINATION":"53.0515","ARG_OF_PERICENTER":"145.7202","NORAD_CAT_ID":"47605","OBJECT_ID":"2021-009BK","ELEMENT_SET_NO":"999","RA_OF_ASC_NODE":"305.1281","FILE":"3382153"},{"SITE":"AFETR","MEAN_ANOMALY":"293.4468","REV_AT_EPOCH":"6467","MEAN_MOTION_DDOT":"0.0000000000000","RCS_SIZE":"LARGE","EPOCH":"2022-03-31T20:45:27.517248","INCLINATION":"53.0562","COUNTRY_CODE":"US","SEMIMAJOR_AXIS":"6925.339","ECCENTRICITY":"0.00015930","BSTAR":"0.00024121000000","EPHEMERIS_TYPE":"0","PERIAPSIS":"546.100","ELEMENT_SET_NO":"999","OBJECT_ID":"2021-009BL","FILE":"3382153","RA_OF_ASC_NODE":"350.7635","ARG_OF_PERICENTER":"66.6688","NORAD_CAT_ID":"47606","PERIOD":"95.592","LAUNCH_DATE":"2021-02-04","MEAN_ELEMENT_THEORY":"SGP4","CENTER_NAME":"EARTH","DECAY_DATE":null,"TLE_LINE1":"1 47606U 21009BL  22090.86490182  .00003313  00000-0  24121-3 0  9999","MEAN_MOTION_DOT":"0.00003313","REF_FRAME":"TEME","TIME_SYSTEM":"UTC","TLE_LINE2":"2 47606  53.0562 350.7635 0001593  66.6688 293.4468 15.06403239 64675","MEAN_MOTION":"15.06403239","APOAPSIS":"548.307","CLASSIFICATION_TYPE":"U","OBJECT_TYPE":"PAYLOAD","OBJECT_NAME":"STARLINK-2024","GP_ID":"200156091"}];
